{
    "links": {
        "self": "http://www.neowsapp.com/rest/v1/neo/3738553?api_key=iIulBulltgU6a56xZRHN4H3l9WmuAYTsLGpBGhQ2"
    },
    "id": "3738553",
    "neo_reference_id": "3738553",
    "name": "(2015 XH379)",
    "designation": "2015 XH379",
    "nasa_jpl_url": "http://ssd.jpl.nasa.gov/sbdb.cgi?sstr=3738553",
    "absolute_magnitude_h": 24.9,
    "estimated_diameter": {
        "kilometers": {
            "estimated_diameter_min": 0.0278326768,
            "estimated_diameter_max": 0.0622357573
        },
        "meters": {
            "estimated_diameter_min": 27.8326768072,
            "estimated_diameter_max": 62.2357573367
        },
        "miles": {
            "estimated_diameter_min": 0.0172944182,
            "estimated_diameter_max": 0.0386714948
        },
        "feet": {
            "estimated_diameter_min": 91.3145593761,
            "estimated_diameter_max": 204.1855621004
        }
    },
    "is_potentially_hazardous_asteroid": false,
    "close_approach_data": [
        {
            "close_approach_date": "2015-12-08",
            "close_approach_date_full": "2015-Dec-08 11:43",
            "epoch_date_close_approach": 1449574980000,
            "relative_velocity": {
                "kilometers_per_second": "7.496784949",
                "kilometers_per_hour": "26988.4258163248",
                "miles_per_hour": "16769.5582523714"
            },
            "miss_distance": {
                "astronomical": "0.0771193952",
                "lunar": "29.9994447328",
                "kilometers": "11536897.257608224",
                "miles": "7168695.5390485312"
            },
            "orbiting_body": "Earth"
        }
    ],
    "orbital_data": {
        "orbit_id": "5",
        "orbit_determination_date": "2017-04-06 08:29:48",
        "first_observation_date": "2015-12-08",
        "last_observation_date": "2015-12-14",
        "data_arc_in_days": 6,
        "observations_used": 8,
        "orbit_uncertainty": "9",
        "minimum_orbit_intersection": ".0281197",
        "jupiter_tisserand_invariant": "4.562",
        "epoch_osculation": "2457365.5",
        "eccentricity": ".3056472946367099",
        "semi_major_axis": "1.455688362034545",
        "inclination": "11.42038201239694",
        "ascending_node_longitude": "86.45227118906597",
        "orbital_period": "641.5064712835914",
        "perihelion_distance": "1.010761152344543",
        "perihelion_argument": "353.0753872600225",
        "aphelion_distance": "1.900615571724548",
        "perihelion_time": "2457364.871868232618",
        "mean_anomaly": ".3524943962062631",
        "mean_motion": ".5611790622776966",
        "equinox": "J2000",
        "orbit_class": {
            "orbit_class_type": "APO",
            "orbit_class_description": "Near-Earth asteroid orbits which cross the Earth’s orbit similar to that of 1862 Apollo",
            "orbit_class_range": "a (semi-major axis) > 1.0 AU; q (perihelion) < 1.017 AU"
        }
    },
    "is_sentry_object": false
}